ONEWEB-0461             
1 51649U 22012AD  24292.27128133 -.00000042  00000+0 -14035-3 0  9991
2 51649  87.9075 126.7602 0001579  85.7360 274.3952 13.17651564133961
ONEWEB-0463             
1 51650U 22012AE  24292.48053941 -.00003250  00000+0 -84038-2 0  9993
2 51650  87.9093 126.7703 0001748  77.8201 282.3126 13.17667168133777
ONEWEB-0464             
1 51651U 22012AF  24292.37259300  .00000130  00000+0  33524-3 0  9996
2 51651  87.8943 157.0812 0002023  79.4857 280.6498 13.10374068129855
ONEWEB-0468             
1 51652U 22012AG  24292.15017071  .00000602  00000+0  16873-2 0  9991
2 51652  87.8939 157.1177 0001687  77.6900 282.4416 13.10373839129800
ONEWEB-0473             
1 51653U 22012AH  24292.05886012 -.00000235  00000+0 -70838-3 0  9996
2 51653  87.8942 157.1393 0001646  81.6929 278.4385 13.10377525129790
ONEWEB-0474             
1 51654U 22012AJ  24292.12690452 -.00000396  00000+0 -11699-2 0  9993
2 51654  87.8934 157.1109 0001831  82.9360 277.1976 13.10374050129798
ONEWEB-0475             
1 51655U 22012AK  24292.03673800  .00000099  00000+0  22180-3 0  9998
2 51655  87.9086 126.8386 0002078 109.4505 250.6851 13.17650119133735
ONEWEB-0490             
1 54113U 22138A   24292.37277305  .00000039  00000+0  66230-4 0  9995
2 54113  87.9144  65.6357 0001798  96.5840 263.5497 13.19730048 96791
